LEDSAT                  
1 49069U 21073D   23259.20373469  .00011752  00000+0  61373-3 0  9994
2 49069  97.4750 328.6035 0023758 162.1971 198.0099 15.15815074114684
SPORT                   
1 55129U 98067UW  23259.21244639  .00297491  44428-4  88350-3 0  9999
2 55129  51.6220 207.2859 0006921 106.6346 253.5421 15.91955967 40910
